STARLINK-30494          
1 57970U 23151G   26068.36049035 -.00001272  00000+0 -35691-4 0  9993
2 57970  43.0027 192.4566 0001155 241.5536 118.5200 15.28417441137406
STARLINK-31399          
1 59416U 24064U   26068.98976688 -.00002455  00000+0 -79740-4 0  9992
2 59416  43.0024  54.3007 0002389 299.8339  60.2275 15.27558367109274
